ONEWEB-0178             
1 48075U 21025AK  23059.44262951  .00000284  00000+0  74289-3 0  9992
2 48075  87.9077 199.6456 0001784 109.3261 250.8061 13.13469976 95573
ONEWEB-0178             
1 48075U 21025AK  23059.67116137  .00000315  00000+0  82678-3 0  9997
2 48075  87.9078 199.6004 0001787 109.3017 250.8306 13.13470766 95600
ONEWEB-0178             
1 48075U 21025AK  23059.89969445  .00000140  00000+0  34912-3 0  9993
2 48075  87.9079 199.5552 0001778 109.5461 250.5860 13.13470529 95635
ONEWEB-0178             
1 48075U 21025AK  23060.89000180  .00000000  00000+0 -33881-4 0  9998
2 48075  87.9079 199.3594 0001808 109.5247 250.6078 13.13470335 95766
ONEWEB-0178             
1 48075U 21025AK  23061.11853331  .00000070  00000+0  15791-3 0  9993
2 48075  87.9079 199.3142 0001806 109.5542 250.5783 13.13471085 95799
ONEWEB-0178             
1 48075U 21025AK  23061.80413158 -.00000158  00000+0 -46652-3 0  9997
2 48075  87.9081 199.1787 0001818 109.3838 250.7488 13.13470195 95889
ONEWEB-0178             
1 48075U 21025AK  23062.33737291 -.00000137  00000+0 -40866-3 0  9991
2 48075  87.9080 199.0732 0001844 109.2339 250.8990 13.13471127 95954
ONEWEB-0178             
1 48075U 21025AK  23062.41355035 -.00000120  00000+0 -36480-3 0  9991
2 48075  87.9079 199.0582 0001856 109.2026 250.9304 13.13471082 95962
ONEWEB-0178             
1 48075U 21025AK  23062.87061647 -.00000361  00000+0 -10238-2 0  9993
2 48075  87.9080 198.9678 0001841 109.4475 250.6854 13.13470210 96029
